NORAD_CAT_ID,OBJECT_NAME,OBJECT_TYPE,EPOCH,MEAN_MOTION,ECCENTRICITY,INCLINATION,RA_OF_ASC_NODE,ARG_OF_PERICENTER,MEAN_ANOMALY,BSTAR,MEAN_MOTION_DOT,MEAN_MOTION_DDOT,TLE_LINE0,TLE_LINE1,TLE_LINE2,SEMIMAJOR_AXIS,PERIOD,APOGEE,PERIGEE,DECAYED
52127.0,STARLINK-3715,PAYLOAD,2022-09-12 12:00:00,15.08851577,0.0001541999999999,53.2158,29.1704,58.214,344.6764,-0.00097369,-0.00015756,0.0,0 STARLINK-3715,1 52127U 22029AR  22255.50001157 -.00015756  00000-0 -97369-3 0  9990,2 52127  53.2158  29.1704 0001542  58.2140 344.6764 15.08851577 28560,6917.845,95.437,540.7769999999998,538.643,0.0
52127.0,STARLINK-3715,PAYLOAD,2022-09-12 14:00:01,15.08848225,0.0001595,53.2157,28.7968,55.6879,80.1045,-0.00083922,-0.00013622,0.0,0 STARLINK-3715,1 52127U 22029AR  22255.58334491 -.00013622  00000-0 -83922-3 0  9998,2 52127  53.2157  28.7968 0001595  55.6879  80.1045 15.08848225  1307,6917.855,95.437,540.8240000000002,538.617,0.0
52127.0,STARLINK-3715,PAYLOAD,2022-09-12 22:00:00,15.08861807,0.0001699,53.2156,27.301,50.7445,96.6422,-0.0015795,-0.00025353,0.0,0 STARLINK-3715,1 52127U 22029AR  22255.91667824 -.00025353  00000-0 -15795-2 0  9990,2 52127  53.2156  27.3010 0001699  50.7445  96.6422 15.08861807  1301,6917.814,95.436,540.854,538.503,0.0
52127.0,STARLINK-3715,PAYLOAD,2022-09-13 06:00:00,15.08819215,0.0001591,53.2156,25.8027,58.4096,100.6077,0.0032515,0.00051811,0.0,0 STARLINK-3715,1 52127U 22029AR  22256.25001157  .00051811  00000-0  32515-2 0  9994,2 52127  53.2156  25.8027 0001591  58.4096 100.6077 15.08819215 28677,6917.944,95.439,540.91,538.7080000000002,0.0
52127.0,STARLINK-3715,PAYLOAD,2022-09-13 14:00:01,15.08857651,0.0001688,53.216,24.3082,53.6284,116.9831,-0.0030901,-0.00049156,0.0,0 STARLINK-3715,1 52127U 22029AR  22256.58334491 -.00049156  00000-0 -30901-2 0  9998,2 52127  53.2160  24.3082 0001688  53.6284 116.9831 15.08857651  1305,6917.826,95.436,540.859,538.524,0.0
52127.0,STARLINK-3715,PAYLOAD,2022-09-13 16:00:00,15.08836735,0.0001726,53.2161,23.9349,51.4205,212.0972,-0.001133,-0.00018273,0.0,0 STARLINK-3715,1 52127U 22029AR  22256.66667824 -.00018273  00000-0 -11330-2 0  9997,2 52127  53.2161  23.9349 0001726  51.4205 212.0972 15.08836735 28739,6917.89,95.438,540.9490000000002,538.561,0.0
52127.0,STARLINK-3715,PAYLOAD,2022-09-13 22:00:00,15.08833922,0.000165,53.2157,22.8115,46.5991,135.6035,-0.001457,-0.00023398,0.0,0 STARLINK-3715,1 52127U 22029AR  22256.91667824 -.00023398  00000-0 -14570-2 0  9998,2 52127  53.2157  22.8115 0001650  46.5991 135.6035 15.08833922  1305,6917.899,95.438,540.905,538.623,0.0
52127.0,STARLINK-3715,PAYLOAD,2022-09-14 14:00:01,15.0883862,0.0001681,53.216,19.8188,49.3478,156.0028,-0.00037942,-6.321e-05,0.0,0 STARLINK-3715,1 52127U 22029AR  22257.58334491 -.00006321  00000-0 -37942-3 0  9999,2 52127  53.2160  19.8188 0001681  49.3478 156.0028 15.08838620 28870,6917.885,95.438,540.913,538.587,0.0
52127.0,STARLINK-3715,PAYLOAD,2022-09-14 22:00:00,15.08854951,0.0001754999999999,53.2161,18.3224,47.2871,169.65200000000004,-0.0025124,-0.00040068,0.0,0 STARLINK-3715,1 52127U 22029AR  22257.91667824 -.00040068  00000-0 -25124-2 0  9999,2 52127  53.2161  18.3224 0001755  47.2871 169.6520 15.08854951  1303,6917.835,95.437,540.914,538.486,0.0
52127.0,STARLINK-3715,PAYLOAD,2022-09-15 14:00:01,15.08841515,0.0001695,53.2164,15.3297,45.352,194.8002,3.6964e-05,3e-06,0.0,0 STARLINK-3715,1 52127U 22029AR  22258.58334491  .00000300  00000-0  36964-4 0  9993,2 52127  53.2164  15.3297 0001695  45.3520 194.8002 15.08841515  1303,6917.876,95.437,540.913,538.568,0.0
52127.0,STARLINK-3715,PAYLOAD,2022-09-15 17:42:34,15.08843614,0.0001583,53.2161,14.634,54.882,305.232,7.2157e-06,-1.73e-06,0.0,0 STARLINK-3715,1 52127U 22029AR  22258.73789528 -.00000173  00000-0  72157-5 0  9999,2 52127  53.2161  14.6340 0001583  54.8820 305.2320 15.08843614 29050,6917.869000000002,95.437,540.8290000000002,538.639,0.0
52127.0,STARLINK-3715,PAYLOAD,2022-09-16 11:11:48,15.08832137,0.0001382,53.2182,11.3626,68.8864,291.2276,9.2913e-05,1.191e-05,0.0,0 STARLINK-3715,1 52127U 22029AR  22259.46653930  .00001191  00000-0  92913-4 0  9998,2 52127  53.2182  11.3626 0001382  68.8864 291.2276 15.08832137 29168,6917.904,95.438,540.725,538.813,0.0
52127.0,STARLINK-3715,PAYLOAD,2022-09-16 17:33:21,15.088354,0.0001484,53.2168,10.1731,50.6033,309.5091,2.0471e-05,3.8e-07,0.0,0 STARLINK-3715,1 52127U 22029AR  22259.73150069  .00000038  00000-0  20471-4 0  9992,2 52127  53.2168  10.1731 0001484  50.6033 309.5091 15.08835400 29205,6917.894,95.438,540.786,538.7330000000002,0.0
52127.0,STARLINK-3715,PAYLOAD,2022-09-17 12:37:59,15.08836855,0.0001499,53.2177,6.606,45.695,314.4165,-5.3595e-05,-1.141e-05,0.0,0 STARLINK-3715,1 52127U 22029AR  22260.52638144 -.00001141  00000-0 -53595-4 0  9997,2 52127  53.2177   6.6060 0001499  45.6950 314.4165 15.08836855 29323,6917.89,95.438,540.7919999999998,538.7180000000002,0.0
52127.0,STARLINK-3715,PAYLOAD,2022-09-17 15:48:45,15.0884075,0.0001633,53.2173,6.0115,46.565,313.5478,-8.936299999999999e-05,-1.7100000000000002e-05,0.0,0 STARLINK-3715,1 52127U 22029AR  22260.65886083 -.00001710  00000-0 -89363-4 0  9992,2 52127  53.2173   6.0115 0001633  46.5650 313.5478 15.08840750 29349,6917.878000000002,95.438,540.873,538.613,0.0
52127.0,STARLINK-3715,PAYLOAD,2022-09-18 10:53:24,15.08822593,0.0001714,53.2183,2.4441,52.4889,307.6258,4.2664e-05,3.91e-06,0.0,0 STARLINK-3715,1 52127U 22029AR  22261.45375033  .00000391  00000-0  42664-4 0  9994,2 52127  53.2183   2.4441 0001714  52.4889 307.6258 15.08822593 29460,6917.934,95.439,540.984,538.613,0.0
52127.0,STARLINK-3715,PAYLOAD,2022-09-18 12:28:46,15.08836269,0.000168,53.2182,2.1468,50.4315,309.6825,-0.00010933,-2.027e-05,0.0,0 STARLINK-3715,1 52127U 22029AR  22261.51998748 -.00002027  00000-0 -10933-3 0  9998,2 52127  53.2182   2.1468 0001680  50.4315 309.6825 15.08836269 29477,6917.892,95.438,540.919,538.595,0.0
52127.0,STARLINK-3715,PAYLOAD,2022-09-18 15:39:31,15.08897835,0.0001372,53.2181,1.5519,50.4509,309.6604,-0.00089337,-0.000145,0.0,0 STARLINK-3715,1 52127U 22029AR  22261.65245104 -.00014500  00000-0 -89337-3 0  9997,2 52127  53.2181   1.5519 0001372  50.4509 309.6604 15.08897835 29492,6917.704000000002,95.434,540.518,538.62,0.0
52127.0,STARLINK-3715,PAYLOAD,2022-09-18 23:36:28,15.08835363,0.0001740999999999,53.2183,0.0653,53.9872,306.1281,5.967e-05,6.62e-06,0.0,0 STARLINK-3715,1 52127U 22029AR  22261.98366514  .00000662  00000-0  59670-4 0  9992,2 52127  53.2183   0.0653 0001741  53.9872 306.1281 15.08835363 29545,6917.895,95.438,540.964,538.555,0.0
52127.0,STARLINK-3715,PAYLOAD,2022-09-19 10:44:10,15.08831516,0.0001785,53.2183,357.9833,53.6814,306.4343,6.9693e-05,8.21e-06,0.0,0 STARLINK-3715,1 52127U 22029AR  22262.44734914  .00000821  00000-0  69693-4 0  9990,2 52127  53.2183 357.9833 0001785  53.6814 306.4343 15.08831516 29616,6917.906,95.438,541.006,538.536,0.0
52127.0,STARLINK-3715,PAYLOAD,2022-09-19 15:30:20,15.08826397,0.0001749,53.218,357.0918,52.8706,307.2445,2.6637e-05,1.36e-06,0.0,0 STARLINK-3715,1 52127U 22029AR  22262.64607486  .00000136  00000-0  26637-4 0  9995,2 52127  53.2180 357.0918 0001749  52.8706 307.2445 15.08826397 29645,6917.922,95.438,540.997,538.577,0.0
52127.0,STARLINK-3715,PAYLOAD,2022-09-20 12:10:21,15.08831827,0.0001708,53.2173,353.2247,50.5451,309.5692,9.3425e-05,1.199e-05,0.0,0 STARLINK-3715,1 52127U 22029AR  22263.50719472  .00001199  00000-0  93425-4 0  9999,2 52127  53.2173 353.2247 0001708  50.5451 309.5692 15.08831827 29774,6917.905,95.438,540.952,538.589,0.0
52127.0,STARLINK-3715,PAYLOAD,2022-09-20 13:45:44,15.08834242,0.0001743,53.2174,352.9275,46.3884,313.7252,0.00010216,1.338e-05,0.0,0 STARLINK-3715,1 52127U 22029AR  22263.57343338  .00001338  00000-0  10216-3 0  9991,2 52127  53.2174 352.9275 0001743  46.3884 313.7252 15.08834242 29788,6917.898,95.438,540.969,538.557,0.0
52127.0,STARLINK-3715,PAYLOAD,2022-09-21 08:50:21,15.08843645,0.0001593,53.2174,349.3581,48.3543,311.7585,0.0001317,1.809e-05,0.0,0 STARLINK-3715,1 52127U 22029AR  22264.36830585  .00001809  00000-0  13170-3 0  9999,2 52127  53.2174 349.3581 0001593  48.3543 311.7585 15.08843645 29903,6917.869000000002,95.437,540.836,538.632,0.0
52127.0,STARLINK-3715,PAYLOAD,2022-09-21 15:11:54,15.08838827,0.0001666999999999,53.2173,348.1692,50.1423,309.9716,9.7683e-05,1.267e-05,0.0,0 STARLINK-3715,1 52127U 22029AR  22264.63326982  .00001267  00000-0  97683-4 0  9990,2 52127  53.2173 348.1692 0001667  50.1423 309.9716 15.08838827 29947,6917.884,95.438,540.9019999999998,538.596,0.0
52127.0,STARLINK-3715,PAYLOAD,2022-09-22 11:51:56,15.08808098,0.0001575,53.2178,344.3036,58.2847,301.8298,0.00045367,6.933e-05,0.0,0 STARLINK-3715,1 52127U 22029AR  22265.49440364  .00006933  00000-0  45367-3 0  9992,2 52127  53.2178 344.3036 0001575  58.2847 301.8298 15.08808098 30078,6917.978,95.44,540.932,538.753,0.0
52127.0,STARLINK-3715,PAYLOAD,2022-09-22 15:02:41,15.0883684,0.0001911999999999,53.2177,343.7107,49.4525,310.6634,8.798600000000001e-05,1.112e-05,0.0,0 STARLINK-3715,1 52127U 22029AR  22265.62687225  .00001112  00000-0  87986-4 0  9994,2 52127  53.2177 343.7107 0001912  49.4525 310.6634 15.08836840 30099,6917.89,95.438,541.078,538.432,0.0
52127.0,STARLINK-3715,PAYLOAD,2022-09-23 11:42:42,15.088363,0.0001737,53.2173,339.8442,47.2844,312.8294,-3.5497e-06,-3.45e-06,0.0,0 STARLINK-3715,1 52127U 22029AR  22266.48799321 -.00000345  00000-0 -35497-5 0  9990,2 52127  53.2173 339.8442 0001737  47.2844 312.8294 15.08836300 30220,6917.892,95.438,540.9580000000002,538.555,0.0
52127.0,STARLINK-3715,PAYLOAD,2022-09-23 14:53:28,15.08841109,0.0001749,53.2169,339.249,47.3191,312.7949,2.2491e-05,7e-07,0.0,0 STARLINK-3715,1 52127U 22029AR  22266.62046946  .00000070  00000-0  22491-4 0  9996,2 52127  53.2169 339.2490 0001749  47.3191 312.7949 15.08841109 30242,6917.877,95.437,540.952,538.5319999999998,0.0
